[{"OBJECT_NAME":"LEMUR-2-TARTIFLETTE","OBJECT_ID":"2025-276DZ","EPOCH":"2026-04-25T16:34:38.279712","MEAN_MOTION":14.98370646,"ECCENTRICITY":0.00117502,"INCLINATION":97.5289,"RA_OF_ASC_NODE":188.1458,"ARG_OF_PERICENTER":322.2667,"MEAN_ANOMALY":37.7731,"EPHEMERIS_TYPE":0,"CLASSIFICATION_TYPE":"U","NORAD_CAT_ID":66784,"ELEMENT_SET_NO":999,"REV_AT_EPOCH":2233,"BSTAR":0.0006021252,"MEAN_MOTION_DOT":7.134e-5,"MEAN_MOTION_DDOT":0},{"OBJECT_NAME":"LEMUR-2-VUKASIN","OBJECT_ID":"2025-276EA","EPOCH":"2026-04-26T11:08:35.978784","MEAN_MOTION":14.99695562,"ECCENTRICITY":0.000617,"INCLINATION":97.5241,"RA_OF_ASC_NODE":189.0821,"ARG_OF_PERICENTER":304.5002,"MEAN_ANOMALY":55.5639,"EPHEMERIS_TYPE":0,"CLASSIFICATION_TYPE":"U","NORAD_CAT_ID":66785,"ELEMENT_SET_NO":999,"REV_AT_EPOCH":2239,"BSTAR":0.00070137,"MEAN_MOTION_DOT":8.605e-5,"MEAN_MOTION_DDOT":0},{"OBJECT_NAME":"LEMUR-2-HOTSPUR-TOM","OBJECT_ID":"2025-276EB","EPOCH":"2026-04-26T11:33:54.152928","MEAN_MOTION":14.98364579,"ECCENTRICITY":0.0012031,"INCLINATION":97.5266,"RA_OF_ASC_NODE":188.9063,"ARG_OF_PERICENTER":311.8015,"MEAN_ANOMALY":48.2179,"EPHEMERIS_TYPE":0,"CLASSIFICATION_TYPE":"U","NORAD_CAT_ID":66786,"ELEMENT_SET_NO":999,"REV_AT_EPOCH":2238,"BSTAR":0.00064705,"MEAN_MOTION_DOT":7.67e-5,"MEAN_MOTION_DDOT":0},{"OBJECT_NAME":"LEMUR-2-MYRA","OBJECT_ID":"2025-276EC","EPOCH":"2026-04-25T18:11:44.134944","MEAN_MOTION":14.99654006,"ECCENTRICITY":0.00109855,"INCLINATION":97.5308,"RA_OF_ASC_NODE":188.358,"ARG_OF_PERICENTER":327.5398,"MEAN_ANOMALY":32.5149,"EPHEMERIS_TYPE":0,"CLASSIFICATION_TYPE":"U","NORAD_CAT_ID":66787,"ELEMENT_SET_NO":999,"REV_AT_EPOCH":2235,"BSTAR":0.00050499731,"MEAN_MOTION_DOT":6.176e-5,"MEAN_MOTION_DDOT":0},{"OBJECT_NAME":"LEMUR-2 FIKRETDENGIZ","OBJECT_ID":"2026-004A","EPOCH":"2026-04-26T11:51:22.451040","MEAN_MOTION":14.87922659,"ECCENTRICITY":0.0007524,"INCLINATION":97.8023,"RA_OF_ASC_NODE":115.8642,"ARG_OF_PERICENTER":320.3445,"MEAN_ANOMALY":39.722,"EPHEMERIS_TYPE":0,"CLASSIFICATION_TYPE":"U","NORAD_CAT_ID":67363,"ELEMENT_SET_NO":999,"REV_AT_EPOCH":1559,"BSTAR":0.00061382,"MEAN_MOTION_DOT":5.573e-5,"MEAN_MOTION_DDOT":0},{"OBJECT_NAME":"LEMUR-2-CALLUM-K-J","OBJECT_ID":"2026-004B","EPOCH":"2026-04-25T23:05:49.065216","MEAN_MOTION":14.87518601,"ECCENTRICITY":0.00073669,"INCLINATION":97.8065,"RA_OF_ASC_NODE":115.37,"ARG_OF_PERICENTER":308.9975,"MEAN_ANOMALY":51.0585,"EPHEMERIS_TYPE":0,"CLASSIFICATION_TYPE":"U","NORAD_CAT_ID":67364,"ELEMENT_SET_NO":999,"REV_AT_EPOCH":1552,"BSTAR":0.0002179232,"MEAN_MOTION_DOT":1.923e-5,"MEAN_MOTION_DDOT":0},{"OBJECT_NAME":"LEMUR-2-MARIO-SOUSA","OBJECT_ID":"2026-004C","EPOCH":"2026-04-26T09:59:26.139264","MEAN_MOTION":14.88082134,"ECCENTRICITY":0.0007085,"INCLINATION":97.8,"RA_OF_ASC_NODE":115.786,"ARG_OF_PERICENTER":322.2831,"MEAN_ANOMALY":37.7888,"EPHEMERIS_TYPE":0,"CLASSIFICATION_TYPE":"U","NORAD_CAT_ID":67365,"ELEMENT_SET_NO":999,"REV_AT_EPOCH":1559,"BSTAR":0.00065687,"MEAN_MOTION_DOT":5.991e-5,"MEAN_MOTION_DDOT":0},{"OBJECT_NAME":"LEMUR-2-SONNENBLUME","OBJECT_ID":"2026-004E","EPOCH":"2026-04-26T11:28:01.488864","MEAN_MOTION":14.88043871,"ECCENTRICITY":0.0006879,"INCLINATION":97.799,"RA_OF_ASC_NODE":115.8456,"ARG_OF_PERICENTER":323.761,"MEAN_ANOMALY":36.314,"EPHEMERIS_TYPE":0,"CLASSIFICATION_TYPE":"U","NORAD_CAT_ID":67367,"ELEMENT_SET_NO":999,"REV_AT_EPOCH":1560,"BSTAR":0.00042604,"MEAN_MOTION_DOT":3.862e-5,"MEAN_MOTION_DDOT":0},{"OBJECT_NAME":"LEMUR-2-WOBLER","OBJECT_ID":"2026-004F","EPOCH":"2026-04-26T11:25:51.366144","MEAN_MOTION":14.88124902,"ECCENTRICITY":0.0006556,"INCLINATION":97.8048,"RA_OF_ASC_NODE":115.918,"ARG_OF_PERICENTER":311.8427,"MEAN_ANOMALY":48.223,"EPHEMERIS_TYPE":0,"CLASSIFICATION_TYPE":"U","NORAD_CAT_ID":67368,"ELEMENT_SET_NO":999,"REV_AT_EPOCH":1560,"BSTAR":0.00062169,"MEAN_MOTION_DOT":5.673e-5,"MEAN_MOTION_DDOT":0},{"OBJECT_NAME":"LEMUR-2-GRAM-E-SUE","OBJECT_ID":"2026-004H","EPOCH":"2026-04-26T11:13:47.721216","MEAN_MOTION":14.88215883,"ECCENTRICITY":0.0005994,"INCLINATION":97.7979,"RA_OF_ASC_NODE":115.8455,"ARG_OF_PERICENTER":328.6778,"MEAN_ANOMALY":31.408,"EPHEMERIS_TYPE":0,"CLASSIFICATION_TYPE":"U","NORAD_CAT_ID":67370,"ELEMENT_SET_NO":999,"REV_AT_EPOCH":1560,"BSTAR":0.00062821,"MEAN_MOTION_DOT":5.746e-5,"MEAN_MOTION_DDOT":0},{"OBJECT_NAME":"LEMUR-2-KATIE","OBJECT_ID":"2026-004AA","EPOCH":"2026-04-26T12:11:18.303936","MEAN_MOTION":14.89698813,"ECCENTRICITY":0.0001261,"INCLINATION":97.8042,"RA_OF_ASC_NODE":116.181,"ARG_OF_PERICENTER":254.8209,"MEAN_ANOMALY":105.2869,"EPHEMERIS_TYPE":0,"CLASSIFICATION_TYPE":"U","NORAD_CAT_ID":67387,"ELEMENT_SET_NO":999,"REV_AT_EPOCH":1561,"BSTAR":0.00053481,"MEAN_MOTION_DOT":5.065e-5,"MEAN_MOTION_DDOT":0},{"OBJECT_NAME":"LEMUR-2-HCS-BAZUS","OBJECT_ID":"2026-004AB","EPOCH":"2026-04-26T12:07:46.600608","MEAN_MOTION":14.89594746,"ECCENTRICITY":8.74e-5,"INCLINATION":97.8032,"RA_OF_ASC_NODE":116.1703,"ARG_OF_PERICENTER":228.5011,"MEAN_ANOMALY":131.6131,"EPHEMERIS_TYPE":0,"CLASSIFICATION_TYPE":"U","NORAD_CAT_ID":67388,"ELEMENT_SET_NO":999,"REV_AT_EPOCH":1561,"BSTAR":0.00057575,"MEAN_MOTION_DOT":5.443e-5,"MEAN_MOTION_DDOT":0}]
