LEMUR-2-TARTIFLETTE     
1 66784U 25276DZ  26115.69072083  .00007134  00000+0  60213-3 0  9992
2 66784  97.5289 188.1458 0011750 322.2667  37.7731 14.98370646 22336
LEMUR-2-VUKASIN         
1 66785U 25276EA  26116.46430531  .00008605  00000+0  70137-3 0  9995
2 66785  97.5241 189.0821 0006170 304.5002  55.5639 14.99695562 22394
LEMUR-2-HOTSPUR-TOM     
1 66786U 25276EB  26116.48187677  .00007670  00000+0  64705-3 0  9993
2 66786  97.5266 188.9063 0012031 311.8015  48.2179 14.98364579 22383
LEMUR-2-MYRA            
1 66787U 25276EC  26115.75814971  .00006176  00000+0  50500-3 0  9995
2 66787  97.5308 188.3580 0010985 327.5398  32.5149 14.99654006 22351
LEMUR-2 FIKRETDENGIZ    
1 67363U 26004A   26116.49400985  .00005573  00000+0  61382-3 0  9994
2 67363  97.8023 115.8642 0007524 320.3445  39.7220 14.87922659 15598
LEMUR-2-CALLUM-K-J      
1 67364U 26004B   26115.96237344  .00001923  00000+0  21792-3 0  9999
2 67364  97.8065 115.3700 0007366 308.9975  51.0585 14.87518601 15521
LEMUR-2-MARIO-SOUSA     
1 67365U 26004C   26116.41627476  .00005991  00000+0  65687-3 0  9990
2 67365  97.8000 115.7860 0007085 322.2831  37.7888 14.88082134 15592
LEMUR-2-SONNENBLUME     
1 67367U 26004E   26116.47779501  .00003862  00000+0  42604-3 0  9994
2 67367  97.7990 115.8456 0006879 323.7610  36.3140 14.88043871 15607
LEMUR-2-WOBLER          
1 67368U 26004F   26116.47628896  .00005673  00000+0  62169-3 0  9995
2 67368  97.8048 115.9180 0006556 311.8427  48.2230 14.88124902 15601
LEMUR-2-GRAM-E-SUE      
1 67370U 26004H   26116.46791344  .00005746  00000+0  62821-3 0  9992
2 67370  97.7979 115.8455 0005994 328.6778  31.4080 14.88215883 15606
LEMUR-2-KATIE           
1 67387U 26004AA  26116.50785074  .00005065  00000+0  53481-3 0  9994
2 67387  97.8042 116.1810 0001261 254.8209 105.2869 14.89698813 15612
LEMUR-2-HCS-BAZUS       
1 67388U 26004AB  26116.50540047  .00005443  00000+0  57575-3 0  9992
2 67388  97.8032 116.1703 0000874 228.5011 131.6131 14.89594746 15616
